[{"OBJECT_NAME":"STARLINK-4176","OBJECT_ID":"2022-086AZ","EPOCH":"2026-03-09T15:04:38.710848","MEAN_MOTION":15.08841695,"ECCENTRICITY":0.0001319,"INCLINATION":53.218,"RA_OF_ASC_NODE":179.5398,"ARG_OF_PERICENTER":90.207,"MEAN_ANOMALY":269.9073,"EPHEMERIS_TYPE":0,"CLASSIFICATION_TYPE":"U","NORAD_CAT_ID":53289,"ELEMENT_SET_NO":999,"REV_AT_EPOCH":20124,"BSTAR":6.6347e-5,"MEAN_MOTION_DOT":7.68e-6,"MEAN_MOTION_DDOT":0},{"OBJECT_NAME":"OBJECT G","OBJECT_ID":"2025-292G","EPOCH":"2026-03-09T22:41:34.708704","MEAN_MOTION":15.05879657,"ECCENTRICITY":0.00150455,"INCLINATION":97.6425,"RA_OF_ASC_NODE":145.7524,"ARG_OF_PERICENTER":352.95,"MEAN_ANOMALY":7.1513,"EPHEMERIS_TYPE":0,"CLASSIFICATION_TYPE":"U","NORAD_CAT_ID":66999,"ELEMENT_SET_NO":999,"REV_AT_EPOCH":1351,"BSTAR":0.00047153864,"MEAN_MOTION_DOT":6.807e-5,"MEAN_MOTION_DDOT":0}]
